OBJECT_NAME,OBJECT_ID,EPOCH,MEAN_MOTION,ECCENTRICITY,INCLINATION,RA_OF_ASC_NODE,ARG_OF_PERICENTER,MEAN_ANOMALY,EPHEMERIS_TYPE,CLASSIFICATION_TYPE,NORAD_CAT_ID,ELEMENT_SET_NO,REV_AT_EPOCH,BSTAR,MEAN_MOTION_DOT,MEAN_MOTION_DDOT
BIOMASS,2025-090A,2026-07-07T18:19:36.277248,14.67536311,.0001419,98.0749,15.7771,92.0153,268.1214,0,U,63772,999,6370,.16455E-3,.885E-5,0
GOSAT-GW (IBUKI GW),2025-141A,2026-07-07T20:22:44.964192,14.67554843,.0001459,98.0566,125.8304,85.4344,274.7027,0,U,64694,999,5487,.87065E-4,.446E-5,0
IONOSFERA-M 3,2025-155A,2026-07-07T20:52:21.894240,14.21489994,.0002042,98.6035,150.2552,123.4104,236.7269,0,U,64876,999,4934,.40948E-4,.47E-6,0
IONOSFERA-M 4,2025-155B,2026-07-07T20:01:07.594752,14.21492356,.0001676,98.6034,150.1376,106.8270,253.3092,0,U,64877,999,4933,.4106E-4,.47E-6,0
MICROCARB,2025-156A,2026-07-07T17:42:36.270720,14.72879666,.0017033,98.0076,265.5446,194.5800,165.4919,0,U,64899,999,5099,.7909E-4,.457E-5,0
CO3D 3,2025-156B,2026-07-07T17:23:03.763104,15.20196410,.0001819,97.4331,267.1222,101.1097,259.0343,0,U,64900,999,5265,.15154E-3,.3214E-4,0
CO3D 4,2025-156C,2026-07-07T17:23:16.291104,15.20209399,.0001098,97.4333,267.1220,167.6566,192.4696,0,U,64901,999,5265,.66801E-4,.1379E-4,0
CO3D 2,2025-156D,2026-07-07T18:10:02.637408,15.20205906,.000138,97.4331,267.0531,89.6839,270.4554,0,U,64902,999,5265,.14963E-3,.3173E-4,0
CO3D 1,2025-156E,2026-07-07T18:10:15.536064,15.20210927,.0001328,97.4330,267.0533,100.9585,259.1800,0,U,64903,999,5265,.16238E-3,.345E-4,0
PRSC-S1,2025-164A,2026-07-07T19:33:39.620160,15.06598105,.0005495,41.1289,171.6217,146.0695,214.0471,0,U,65055,999,5154,.16634E-3,.233E-4,0
SENTINEL-6B,2025-264A,2026-07-07T18:37:22.460160,12.80930125,.0007881,66.0415,92.4168,268.8088,91.2024,0,U,66514,999,2980,.14985E-4,-.58E-6,0
CAS500-3,2025-274F,2026-07-07T18:54:13.538016,14.88372231,.0006715,97.7440,116.3702,57.7642,302.4225,0,U,66655,999,3321,.11856E-3,.1044E-4,0
CSG-3,2026-001A,2026-07-06T23:30:38.689344,14.82148038,.00014837,97.8893,11.2950,94.2500,265.8883,0,U,67304,999,2739,.38759905E-4,.256E-5,0
PRSC-E03,2026-092A,2026-07-07T19:10:46.697376,15.06785451,.0004173,38.0022,328.1275,204.3724,155.6841,0,U,68835,999,1106,.14359E-3,.2069E-4,0
CAS500-2,2026-100AK,2026-07-07T16:22:07.811040,15.20843539,.000834,97.3874,86.1516,323.2035,36.8628,0,U,69013,999,992,.18713E-3,.4065E-4,0
